{
  "norad_id": 62213,
  "name": "STARLINK-32669",
  "history": [
    {
      "epoch": "2026-03-28T21:14:59.093088Z",
      "apogee_km": 484.7697816584732,
      "perigee_km": 480.9335284618828,
      "latitude_deg": -7.954933503857074e-06,
      "longitude_deg": 17.552838252644694,
      "height_km": 482.205809637056,
      "semi_major_axis_km": 6860.988655060178,
      "eccentricity": 0.00027957,
      "inclination_deg": 43.0013,
      "raan_deg": 162.5985,
      "arg_perigee_deg": 282.7622,
      "mean_anomaly_deg": 77.2917,
      "mean_motion_rev_day": 15.2764594
    },
    {
      "epoch": "2026-03-29T05:05:46.568256Z",
      "apogee_km": 483.4852978299559,
      "perigee_km": 482.36420034015555,
      "latitude_deg": -1.7844498278631467e-05,
      "longitude_deg": -102.31113059369103,
      "height_km": 482.58584304711354,
      "semi_major_axis_km": 6861.061749085055,
      "eccentricity": 8.17e-05,
      "inclination_deg": 42.9993,
      "raan_deg": 160.7546,
      "arg_perigee_deg": 78.3294,
      "mean_anomaly_deg": 281.7649,
      "mean_motion_rev_day": 15.27621528
    },
    {
      "epoch": "2026-03-30T04:38:07.283040Z",
      "apogee_km": 485.6718021329234,
      "perigee_km": 480.35989759655786,
      "latitude_deg": -1.5394710322719117e-05,
      "longitude_deg": -101.90695492688563,
      "height_km": 482.199049855022,
      "semi_major_axis_km": 6861.15284986474,
      "eccentricity": 0.0003871,
      "inclination_deg": 43.0013,
      "raan_deg": 155.2118,
      "arg_perigee_deg": 282.9524,
      "mean_anomaly_deg": 77.0895,
      "mean_motion_rev_day": 15.27591103
    },
    {
      "epoch": "2026-03-30T12:28:54.328800Z",
      "apogee_km": 483.88867305413805,
      "perigee_km": 482.2005479306936,
      "latitude_deg": 2.3000748267834677e-05,
      "longitude_deg": 138.2282221325106,
      "height_km": 482.8357259808293,
      "semi_major_axis_km": 6861.1816104924155,
      "eccentricity": 0.00012302,
      "inclination_deg": 43.001,
      "raan_deg": 153.3652,
      "arg_perigee_deg": 269.0191,
      "mean_anomaly_deg": 91.052,
      "mean_motion_rev_day": 15.27581498
    },
    {
      "epoch": "2026-03-31T13:35:25.410912Z",
      "apogee_km": 484.07481127339724,
      "perigee_km": 482.0864304068773,
      "latitude_deg": -4.5371296684067175e-05,
      "longitude_deg": 114.66136681794218,
      "height_km": 482.9695500528502,
      "semi_major_axis_km": 6861.217620840137,
      "eccentricity": 0.0001449,
      "inclination_deg": 43.0022,
      "raan_deg": 147.4591,
      "arg_perigee_deg": 263.534,
      "mean_anomaly_deg": 96.5346,
      "mean_motion_rev_day": 15.27569472
    }
  ]
}